{"type": "FeatureCollection", "features": [{"type": "Feature", "properties": {"area": 23530}, "geometry": {"type": "Polygon", "coordinates": [[[0, 0], [0, 1], [1, 1], [1, 0], [0, 0]]]}}, {"type": "Feature", "properties": {"area": 364}, "geometry": {"type": "Polygon", "coordinates": [[[0, 0], [0, 1], [1, 1], [1, 0], [0, 0]]]}}, {"type": "Feature", "properties": {"area": 59}, "geometry": {"type": "Polygon", "coordinates": [[[0, 0], [0, 1], [1, 1], [1, 0], [0, 0]]]}}, {"type": "Feature", "properties": {"area": 67}, "geometry": {"type": "Polygon", "coordinates": [[[0, 0], [0, 1], [1, 1], [1, 0], [0, 0]]]}}]}